[{"OBJECT_NAME":"STARLINK-1364","OBJECT_ID":"2020-025BL","EPOCH":"2026-03-09T22:42:39.507840","MEAN_MOTION":15.49541195,"ECCENTRICITY":0.00079481,"INCLINATION":53.0507,"RA_OF_ASC_NODE":61.9794,"ARG_OF_PERICENTER":58.2992,"MEAN_ANOMALY":301.8789,"EPHEMERIS_TYPE":0,"CLASSIFICATION_TYPE":"U","NORAD_CAT_ID":45589,"ELEMENT_SET_NO":999,"REV_AT_EPOCH":32573,"BSTAR":0.001962035,"MEAN_MOTION_DOT":0.00111268,"MEAN_MOTION_DDOT":0},{"OBJECT_NAME":"ELECTRON KICK STAGE R\/B","OBJECT_ID":"2024-022C","EPOCH":"2026-03-09T13:05:49.259328","MEAN_MOTION":15.49181976,"ECCENTRICITY":0.00079262,"INCLINATION":97.4177,"RA_OF_ASC_NODE":282.5126,"ARG_OF_PERICENTER":91.5934,"MEAN_ANOMALY":268.6225,"EPHEMERIS_TYPE":0,"CLASSIFICATION_TYPE":"U","NORAD_CAT_ID":58901,"ELEMENT_SET_NO":999,"REV_AT_EPOCH":11729,"BSTAR":0.0006925927,"MEAN_MOTION_DOT":0.00037792,"MEAN_MOTION_DDOT":0}]
